STARLINK-31495          
1 59313U 24056T   26068.46122597 -.00001484  00000+0 -44413-4 0  9994
2 59313  43.0007 224.6995 0001284 269.6644  90.4060 15.27571993111209
HAWK-11C                
1 62381U 24247E   26068.51221537  .00009223  00000+0  33290-3 0  9992
2 62381  45.0045 114.8762 0005900 329.7040  30.3502 15.28848020 67743
